CCSDS_OMM_VERS = 2.0
CREATION_DATE  = 
ORIGINATOR     = 

OBJECT_NAME    = UNKNOWN
OBJECT_ID      = 
CENTER_NAME    = EARTH
REF_FRAME      = TEME
TIME_SYSTEM    = UTC
MEAN_ELEMENT_THEORY = SGP/SGP4

EPOCH          = 2025-12-04T09:13:23.856096
MEAN_MOTION    = 12.97047331
ECCENTRICITY   = .0031743
INCLINATION    = 90.2406
RA_OF_ASC_NODE = 6.4126
ARG_OF_PERICENTER = 242.3544
MEAN_ANOMALY   = 117.4353

EPHEMERIS_TYPE = 0
CLASSIFICATION_TYPE = U
NORAD_CAT_ID   = 270115
ELEMENT_SET_NO = 999
REV_AT_EPOCH   = 28414
BSTAR          = .26017323E-2
MEAN_MOTION_DOT = .759E-5
MEAN_MOTION_DDOT = 0

CCSDS_OMM_VERS = 2.0
CREATION_DATE  = 
ORIGINATOR     = 

OBJECT_NAME    = UNKNOWN
OBJECT_ID      = 
CENTER_NAME    = EARTH
REF_FRAME      = TEME
TIME_SYSTEM    = UTC
MEAN_ELEMENT_THEORY = SGP/SGP4

EPOCH          = 2025-12-05T06:35:30.034752
MEAN_MOTION    = 12.23515660
ECCENTRICITY   = .01334429
INCLINATION    = 74.0078
RA_OF_ASC_NODE = 352.7344
ARG_OF_PERICENTER = 222.4258
MEAN_ANOMALY   = 136.6401

EPHEMERIS_TYPE = 0
CLASSIFICATION_TYPE = U
NORAD_CAT_ID   = 270116
ELEMENT_SET_NO = 999
REV_AT_EPOCH   = 26920
BSTAR          = .7999047E-3
MEAN_MOTION_DOT = .74E-6
MEAN_MOTION_DDOT = 0

CCSDS_OMM_VERS = 2.0
CREATION_DATE  = 
ORIGINATOR     = 

OBJECT_NAME    = UNKNOWN
OBJECT_ID      = 
CENTER_NAME    = EARTH
REF_FRAME      = TEME
TIME_SYSTEM    = UTC
MEAN_ELEMENT_THEORY = SGP/SGP4

EPOCH          = 2025-12-13T07:07:38.805888
MEAN_MOTION    = 13.00243690
ECCENTRICITY   = .00270694
INCLINATION    = 90.2316
RA_OF_ASC_NODE = 357.0066
ARG_OF_PERICENTER = 0.6271
MEAN_ANOMALY   = 359.4881

EPHEMERIS_TYPE = 0
CLASSIFICATION_TYPE = U
NORAD_CAT_ID   = 270117
ELEMENT_SET_NO = 999
REV_AT_EPOCH   = 28660
BSTAR          = -.10776965E-2
MEAN_MOTION_DOT = -.318E-5
MEAN_MOTION_DDOT = 0

CCSDS_OMM_VERS = 2.0
CREATION_DATE  = 
ORIGINATOR     = 

OBJECT_NAME    = UNKNOWN
OBJECT_ID      = 
CENTER_NAME    = EARTH
REF_FRAME      = TEME
TIME_SYSTEM    = UTC
MEAN_ELEMENT_THEORY = SGP/SGP4

EPOCH          = 2025-12-06T19:49:18.183360
MEAN_MOTION    = 12.38001066
ECCENTRICITY   = .01186332
INCLINATION    = 47.2401
RA_OF_ASC_NODE = 186.7306
ARG_OF_PERICENTER = 318.1958
MEAN_ANOMALY   = 40.9825

EPHEMERIS_TYPE = 0
CLASSIFICATION_TYPE = U
NORAD_CAT_ID   = 270120
ELEMENT_SET_NO = 999
REV_AT_EPOCH   = 27226
BSTAR          = .14345984E-1
MEAN_MOTION_DOT = .1827E-4
MEAN_MOTION_DDOT = 0

CCSDS_OMM_VERS = 2.0
CREATION_DATE  = 
ORIGINATOR     = 

OBJECT_NAME    = UNKNOWN
OBJECT_ID      = 
CENTER_NAME    = EARTH
REF_FRAME      = TEME
TIME_SYSTEM    = UTC
MEAN_ELEMENT_THEORY = SGP/SGP4

EPOCH          = 2025-12-12T05:23:03.213600
MEAN_MOTION    = 14.55054900
ECCENTRICITY   = .00045047
INCLINATION    = 98.6858
RA_OF_ASC_NODE = 153.0469
ARG_OF_PERICENTER = 325.4919
MEAN_ANOMALY   = 34.5984

EPHEMERIS_TYPE = 0
CLASSIFICATION_TYPE = U
NORAD_CAT_ID   = 270121
ELEMENT_SET_NO = 999
REV_AT_EPOCH   = 31968
BSTAR          = .76719605E-3
MEAN_MOTION_DOT = .326E-4
MEAN_MOTION_DDOT = 0

CCSDS_OMM_VERS = 2.0
CREATION_DATE  = 
ORIGINATOR     = 

OBJECT_NAME    = UNKNOWN
OBJECT_ID      = 
CENTER_NAME    = EARTH
REF_FRAME      = TEME
TIME_SYSTEM    = UTC
MEAN_ELEMENT_THEORY = SGP/SGP4

EPOCH          = 2025-12-11T07:59:44.130624
MEAN_MOTION    = 12.96248389
ECCENTRICITY   = .00271194
INCLINATION    = 90.2401
RA_OF_ASC_NODE = 7.6641
ARG_OF_PERICENTER = 308.5305
MEAN_ANOMALY   = 51.3384

EPHEMERIS_TYPE = 0
CLASSIFICATION_TYPE = U
NORAD_CAT_ID   = 270122
ELEMENT_SET_NO = 999
REV_AT_EPOCH   = 28503
BSTAR          = -.24929885E-3
MEAN_MOTION_DOT = -.64E-6
MEAN_MOTION_DDOT = 0

CCSDS_OMM_VERS = 2.0
CREATION_DATE  = 
ORIGINATOR     = 

OBJECT_NAME    = UNKNOWN
OBJECT_ID      = 
CENTER_NAME    = EARTH
REF_FRAME      = TEME
TIME_SYSTEM    = UTC
MEAN_ELEMENT_THEORY = SGP/SGP4

EPOCH          = 2025-11-28T19:13:53.630688
MEAN_MOTION    = 12.23600043
ECCENTRICITY   = .08155267
INCLINATION    = 83.2674
RA_OF_ASC_NODE = 9.5972
ARG_OF_PERICENTER = 206.1446
MEAN_ANOMALY   = 149.6208

EPHEMERIS_TYPE = 0
CLASSIFICATION_TYPE = U
NORAD_CAT_ID   = 270123
ELEMENT_SET_NO = 999
REV_AT_EPOCH   = 26782
BSTAR          = .1811752E-2
MEAN_MOTION_DOT = .588E-5
MEAN_MOTION_DDOT = 0

CCSDS_OMM_VERS = 2.0
CREATION_DATE  = 
ORIGINATOR     = 

OBJECT_NAME    = UNKNOWN
OBJECT_ID      = 
CENTER_NAME    = EARTH
REF_FRAME      = TEME
TIME_SYSTEM    = UTC
MEAN_ELEMENT_THEORY = SGP/SGP4

EPOCH          = 2025-12-12T08:29:34.048320
MEAN_MOTION    = 12.96858732
ECCENTRICITY   = .0027394
INCLINATION    = 90.2423
RA_OF_ASC_NODE = 9.0478
ARG_OF_PERICENTER = 162.4232
MEAN_ANOMALY   = 197.7843

EPHEMERIS_TYPE = 0
CLASSIFICATION_TYPE = U
NORAD_CAT_ID   = 270124
ELEMENT_SET_NO = 999
REV_AT_EPOCH   = 28606
BSTAR          = .12391255E-2
MEAN_MOTION_DOT = .365E-5
MEAN_MOTION_DDOT = 0

CCSDS_OMM_VERS = 2.0
CREATION_DATE  = 
ORIGINATOR     = 

OBJECT_NAME    = UNKNOWN
OBJECT_ID      = 
CENTER_NAME    = EARTH
REF_FRAME      = TEME
TIME_SYSTEM    = UTC
MEAN_ELEMENT_THEORY = SGP/SGP4

EPOCH          = 2025-12-09T17:18:40.407264
MEAN_MOTION    = 14.74769839
ECCENTRICITY   = .00132579
INCLINATION    = 86.3275
RA_OF_ASC_NODE = 337.5357
ARG_OF_PERICENTER = 263.0111
MEAN_ANOMALY   = 96.9599

EPHEMERIS_TYPE = 0
CLASSIFICATION_TYPE = U
NORAD_CAT_ID   = 270127
ELEMENT_SET_NO = 999
REV_AT_EPOCH   = 32027
BSTAR          = .25606199E-2
MEAN_MOTION_DOT = .172E-3
MEAN_MOTION_DDOT = 0

CCSDS_OMM_VERS = 2.0
CREATION_DATE  = 
ORIGINATOR     = 

OBJECT_NAME    = UNKNOWN
OBJECT_ID      = 
CENTER_NAME    = EARTH
REF_FRAME      = TEME
TIME_SYSTEM    = UTC
MEAN_ELEMENT_THEORY = SGP/SGP4

EPOCH          = 2025-12-02T18:25:26.881536
MEAN_MOTION    = 12.33804284
ECCENTRICITY   = .00466328
INCLINATION    = 102.4333
RA_OF_ASC_NODE = 337.3688
ARG_OF_PERICENTER = 257.9033
MEAN_ANOMALY   = 101.6798

EPHEMERIS_TYPE = 0
CLASSIFICATION_TYPE = U
NORAD_CAT_ID   = 270128
ELEMENT_SET_NO = 999
REV_AT_EPOCH   = 27100
BSTAR          = .52037389E-3
MEAN_MOTION_DOT = .18E-6
MEAN_MOTION_DDOT = 0

CCSDS_OMM_VERS = 2.0
CREATION_DATE  = 
ORIGINATOR     = 

OBJECT_NAME    = UNKNOWN
OBJECT_ID      = 
CENTER_NAME    = EARTH
REF_FRAME      = TEME
TIME_SYSTEM    = UTC
MEAN_ELEMENT_THEORY = SGP/SGP4

EPOCH          = 2025-12-04T08:12:23.534784
MEAN_MOTION    = 12.98604442
ECCENTRICITY   = .00281629
INCLINATION    = 90.2370
RA_OF_ASC_NODE = 4.2551
ARG_OF_PERICENTER = 226.3334
MEAN_ANOMALY   = 133.5453

EPHEMERIS_TYPE = 0
CLASSIFICATION_TYPE = U
NORAD_CAT_ID   = 270129
ELEMENT_SET_NO = 999
REV_AT_EPOCH   = 28462
BSTAR          = -.2364926E-2
MEAN_MOTION_DOT = -.691E-5
MEAN_MOTION_DDOT = 0

CCSDS_OMM_VERS = 2.0
CREATION_DATE  = 
ORIGINATOR     = 

OBJECT_NAME    = UNKNOWN
OBJECT_ID      = 
CENTER_NAME    = EARTH
REF_FRAME      = TEME
TIME_SYSTEM    = UTC
MEAN_ELEMENT_THEORY = SGP/SGP4

EPOCH          = 2025-12-13T16:05:26.664000
MEAN_MOTION    = 15.00846632
ECCENTRICITY   = .00141413
INCLINATION    = 99.1749
RA_OF_ASC_NODE = 127.9008
ARG_OF_PERICENTER = 257.4632
MEAN_ANOMALY   = 102.5006

EPHEMERIS_TYPE = 0
CLASSIFICATION_TYPE = U
NORAD_CAT_ID   = 270130
ELEMENT_SET_NO = 999
REV_AT_EPOCH   = 31549
BSTAR          = .12237298E-1
MEAN_MOTION_DOT = .159302E-2
MEAN_MOTION_DDOT = 0

CCSDS_OMM_VERS = 2.0
CREATION_DATE  = 
ORIGINATOR     = 

OBJECT_NAME    = UNKNOWN
OBJECT_ID      = 
CENTER_NAME    = EARTH
REF_FRAME      = TEME
TIME_SYSTEM    = UTC
MEAN_ELEMENT_THEORY = SGP/SGP4

EPOCH          = 2025-12-10T11:54:12.978720
MEAN_MOTION    = 4.52463743
ECCENTRICITY   = .54244312
INCLINATION    = 63.1268
RA_OF_ASC_NODE = 154.2343
ARG_OF_PERICENTER = 347.6549
MEAN_ANOMALY   = 3.0772

EPHEMERIS_TYPE = 0
CLASSIFICATION_TYPE = U
NORAD_CAT_ID   = 270131
ELEMENT_SET_NO = 999
REV_AT_EPOCH   = 9981
BSTAR          = -.85306128E-3
MEAN_MOTION_DOT = -.82E-6
MEAN_MOTION_DDOT = 0

CCSDS_OMM_VERS = 2.0
CREATION_DATE  = 
ORIGINATOR     = 

OBJECT_NAME    = UNKNOWN
OBJECT_ID      = 
CENTER_NAME    = EARTH
REF_FRAME      = TEME
TIME_SYSTEM    = UTC
MEAN_ELEMENT_THEORY = SGP/SGP4

EPOCH          = 2025-11-27T15:43:33.696768
MEAN_MOTION    = 12.79544627
ECCENTRICITY   = .03862874
INCLINATION    = 63.2034
RA_OF_ASC_NODE = 116.4429
ARG_OF_PERICENTER = 18.1450
MEAN_ANOMALY   = 343.2897

EPHEMERIS_TYPE = 0
CLASSIFICATION_TYPE = U
NORAD_CAT_ID   = 270133
ELEMENT_SET_NO = 999
REV_AT_EPOCH   = 28046
BSTAR          = .16744853E-2
MEAN_MOTION_DOT = .442E-5
MEAN_MOTION_DDOT = 0

CCSDS_OMM_VERS = 2.0
CREATION_DATE  = 
ORIGINATOR     = 

OBJECT_NAME    = UNKNOWN
OBJECT_ID      = 
CENTER_NAME    = EARTH
REF_FRAME      = TEME
TIME_SYSTEM    = UTC
MEAN_ELEMENT_THEORY = SGP/SGP4

EPOCH          = 2025-12-10T22:00:13.666176
MEAN_MOTION    = 12.29535297
ECCENTRICITY   = .06784833
INCLINATION    = 66.0626
RA_OF_ASC_NODE = 67.2221
ARG_OF_PERICENTER = 220.7309
MEAN_ANOMALY   = 134.1028

EPHEMERIS_TYPE = 0
CLASSIFICATION_TYPE = U
NORAD_CAT_ID   = 270134
ELEMENT_SET_NO = 999
REV_AT_EPOCH   = 27104
BSTAR          = .17757803E-3
MEAN_MOTION_DOT = -.9E-7
MEAN_MOTION_DDOT = 0

CCSDS_OMM_VERS = 2.0
CREATION_DATE  = 
ORIGINATOR     = 

OBJECT_NAME    = UNKNOWN
OBJECT_ID      = 
CENTER_NAME    = EARTH
REF_FRAME      = TEME
TIME_SYSTEM    = UTC
MEAN_ELEMENT_THEORY = SGP/SGP4

EPOCH          = 2025-12-03T16:38:10.903200
MEAN_MOTION    = 13.04655893
ECCENTRICITY   = .02664069
INCLINATION    = 63.5736
RA_OF_ASC_NODE = 321.9834
ARG_OF_PERICENTER = 334.1084
MEAN_ANOMALY   = 24.6790

EPHEMERIS_TYPE = 0
CLASSIFICATION_TYPE = U
NORAD_CAT_ID   = 270135
ELEMENT_SET_NO = 999
REV_AT_EPOCH   = 28645
BSTAR          = .2145807E-2
MEAN_MOTION_DOT = .739E-5
MEAN_MOTION_DDOT = 0

